{"fetched_at":"2026-07-09T18:16:44.960Z","source":"https://celestrak.org/NORAD/elements/gp.php?GROUP=planet&FORMAT=JSON","constellation":"superdove","records":[{"OBJECT_NAME":"FLOCK 4G-17","OBJECT_ID":"2025-009CA","EPOCH":"2026-07-08T18:49:32.317248","CLASSIFICATION_TYPE":"U","MEAN_MOTION":15.29994187,"ECCENTRICITY":0.00035239,"INCLINATION":97.3919,"RA_OF_ASC_NODE":271.0428,"ARG_OF_PERICENTER":242.1627,"MEAN_ANOMALY":117.9257,"EPHEMERIS_TYPE":0,"NORAD_CAT_ID":62681,"ELEMENT_SET_NO":999,"REV_AT_EPOCH":13985,"BSTAR":0.0002709717,"MEAN_MOTION_DOT":0.00007793,"MEAN_MOTION_DDOT":0},{"OBJECT_NAME":"FLOCK 4G-33","OBJECT_ID":"2025-009CE","EPOCH":"2026-07-08T18:17:02.137056","CLASSIFICATION_TYPE":"U","MEAN_MOTION":15.25750709,"ECCENTRICITY":0.00041326,"INCLINATION":97.394,"RA_OF_ASC_NODE":269.3877,"ARG_OF_PERICENTER":242.8969,"MEAN_ANOMALY":117.1848,"EPHEMERIS_TYPE":0,"NORAD_CAT_ID":62685,"ELEMENT_SET_NO":999,"REV_AT_EPOCH":8209,"BSTAR":0.00017229709,"MEAN_MOTION_DOT":0.00004325,"MEAN_MOTION_DDOT":0},{"OBJECT_NAME":"FLOCK 4H-1","OBJECT_ID":"2025-276AQ","EPOCH":"2026-07-08T18:19:50.347488","CLASSIFICATION_TYPE":"U","MEAN_MOTION":15.20800136,"ECCENTRICITY":0.00013636,"INCLINATION":97.4168,"RA_OF_ASC_NODE":263.1104,"ARG_OF_PERICENTER":193.1791,"MEAN_ANOMALY":166.9409,"EPHEMERIS_TYPE":0,"NORAD_CAT_ID":66704,"ELEMENT_SET_NO":999,"REV_AT_EPOCH":3371,"BSTAR":0.00022270174,"MEAN_MOTION_DOT":0.00004841,"MEAN_MOTION_DDOT":0},{"OBJECT_NAME":"FLOCK 4H-2","OBJECT_ID":"2025-276AR","EPOCH":"2026-07-08T17:43:36.497568","CLASSIFICATION_TYPE":"U","MEAN_MOTION":15.21070317,"ECCENTRICITY":0.00009371,"INCLINATION":97.4165,"RA_OF_ASC_NODE":263.132,"ARG_OF_PERICENTER":159.9396,"MEAN_ANOMALY":200.1877,"EPHEMERIS_TYPE":0,"NORAD_CAT_ID":66705,"ELEMENT_SET_NO":999,"REV_AT_EPOCH":3371,"BSTAR":0.00021373186,"MEAN_MOTION_DOT":0.0000468,"MEAN_MOTION_DDOT":0},{"OBJECT_NAME":"FLOCK 4H-3","OBJECT_ID":"2025-276AS","EPOCH":"2026-07-08T17:23:52.936800","CLASSIFICATION_TYPE":"U","MEAN_MOTION":15.2019191,"ECCENTRICITY":0.00023484,"INCLINATION":97.4235,"RA_OF_ASC_NODE":263.0459,"ARG_OF_PERICENTER":287.4851,"MEAN_ANOMALY":72.6128,"EPHEMERIS_TYPE":0,"NORAD_CAT_ID":66706,"ELEMENT_SET_NO":999,"REV_AT_EPOCH":3369,"BSTAR":0.00020140159,"MEAN_MOTION_DOT":0.00004294,"MEAN_MOTION_DDOT":0},{"OBJECT_NAME":"FLOCK 4H-4","OBJECT_ID":"2025-276AT","EPOCH":"2026-07-08T18:14:32.695296","CLASSIFICATION_TYPE":"U","MEAN_MOTION":15.19982082,"ECCENTRICITY":0.00031375,"INCLINATION":97.4214,"RA_OF_ASC_NODE":262.9508,"ARG_OF_PERICENTER":288.3261,"MEAN_ANOMALY":71.7633,"EPHEMERIS_TYPE":0,"NORAD_CAT_ID":66707,"ELEMENT_SET_NO":999,"REV_AT_EPOCH":3369,"BSTAR":0.00025112255,"MEAN_MOTION_DOT":0.00005339,"MEAN_MOTION_DDOT":0},{"OBJECT_NAME":"FLOCK 4H-5","OBJECT_ID":"2025-276AU","EPOCH":"2026-07-08T18:09:00.983232","CLASSIFICATION_TYPE":"U","MEAN_MOTION":15.20854292,"ECCENTRICITY":0.00008769,"INCLINATION":97.4168,"RA_OF_ASC_NODE":263.124,"ARG_OF_PERICENTER":135.3289,"MEAN_ANOMALY":224.8018,"EPHEMERIS_TYPE":0,"NORAD_CAT_ID":66708,"ELEMENT_SET_NO":999,"REV_AT_EPOCH":3371,"BSTAR":0.00022078011,"MEAN_MOTION_DOT":0.00004806,"MEAN_MOTION_DDOT":0},{"OBJECT_NAME":"FLOCK 4H-6","OBJECT_ID":"2025-276AV","EPOCH":"2026-07-08T16:03:51.809760","CLASSIFICATION_TYPE":"U","MEAN_MOTION":15.20553045,"ECCENTRICITY":0.0001932,"INCLINATION":97.4221,"RA_OF_ASC_NODE":263.0803,"ARG_OF_PERICENTER":236.3322,"MEAN_ANOMALY":123.773,"EPHEMERIS_TYPE":0,"NORAD_CAT_ID":66709,"ELEMENT_SET_NO":999,"REV_AT_EPOCH":3369,"BSTAR":0.00020435962,"MEAN_MOTION_DOT":0.00004404,"MEAN_MOTION_DDOT":0},{"OBJECT_NAME":"FLOCK 4H-7","OBJECT_ID":"2025-276AW","EPOCH":"2026-07-08T18:45:47.789568","CLASSIFICATION_TYPE":"U","MEAN_MOTION":15.20324922,"ECCENTRICITY":0.00011251,"INCLINATION":97.4176,"RA_OF_ASC_NODE":262.954,"ARG_OF_PERICENTER":352.0807,"MEAN_ANOMALY":8.041,"EPHEMERIS_TYPE":0,"NORAD_CAT_ID":66710,"ELEMENT_SET_NO":999,"REV_AT_EPOCH":3370,"BSTAR":0.00020177916,"MEAN_MOTION_DOT":0.00004319,"MEAN_MOTION_DDOT":0},{"OBJECT_NAME":"FLOCK 4H-8","OBJECT_ID":"2025-276AX","EPOCH":"2026-07-08T18:33:20.283552","CLASSIFICATION_TYPE":"U","MEAN_MOTION":15.20432587,"ECCENTRICITY":0.00020043,"INCLINATION":97.4216,"RA_OF_ASC_NODE":263.0907,"ARG_OF_PERICENTER":311.5286,"MEAN_ANOMALY":48.5777,"EPHEMERIS_TYPE":0,"NORAD_CAT_ID":66711,"ELEMENT_SET_NO":999,"REV_AT_EPOCH":3370,"BSTAR":0.00021027495,"MEAN_MOTION_DOT":0.00004518,"MEAN_MOTION_DDOT":0},{"OBJECT_NAME":"FLOCK 4H-9","OBJECT_ID":"2025-276AY","EPOCH":"2026-07-08T18:55:02.060256","CLASSIFICATION_TYPE":"U","MEAN_MOTION":15.20732306,"ECCENTRICITY":0.00019196,"INCLINATION":97.4208,"RA_OF_ASC_NODE":263.1984,"ARG_OF_PERICENTER":247.0713,"MEAN_ANOMALY":113.032,"EPHEMERIS_TYPE":0,"NORAD_CAT_ID":66712,"ELEMENT_SET_NO":999,"REV_AT_EPOCH":3371,"BSTAR":0.00021578026,"MEAN_MOTION_DOT":0.00004679,"MEAN_MOTION_DDOT":0},{"OBJECT_NAME":"FLOCK 4H-10","OBJECT_ID":"2025-276AZ","EPOCH":"2026-07-08T17:52:23.250720","CLASSIFICATION_TYPE":"U","MEAN_MOTION":15.20108727,"ECCENTRICITY":0.0002903,"INCLINATION":97.4183,"RA_OF_ASC_NODE":262.8729,"ARG_OF_PERICENTER":290.7514,"MEAN_ANOMALY":69.341,"EPHEMERIS_TYPE":0,"NORAD_CAT_ID":66713,"ELEMENT_SET_NO":999,"REV_AT_EPOCH":3369,"BSTAR":0.00024119162,"MEAN_MOTION_DOT":0.00005144,"MEAN_MOTION_DDOT":0},{"OBJECT_NAME":"FLOCK 4H-11","OBJECT_ID":"2025-276BA","EPOCH":"2026-07-08T18:47:37.310208","CLASSIFICATION_TYPE":"U","MEAN_MOTION":15.2321449,"ECCENTRICITY":0.00012034,"INCLINATION":97.4191,"RA_OF_ASC_NODE":263.4726,"ARG_OF_PERICENTER":294.5608,"MEAN_ANOMALY":65.5504,"EPHEMERIS_TYPE":0,"NORAD_CAT_ID":66714,"ELEMENT_SET_NO":999,"REV_AT_EPOCH":3373,"BSTAR":0.00040914423,"MEAN_MOTION_DOT":0.00009616,"MEAN_MOTION_DDOT":0},{"OBJECT_NAME":"FLOCK 4H-12","OBJECT_ID":"2025-276BB","EPOCH":"2026-07-07T17:20:32.864640","CLASSIFICATION_TYPE":"U","MEAN_MOTION":15.20748833,"ECCENTRICITY":0.0001057,"INCLINATION":97.4179,"RA_OF_ASC_NODE":262.0871,"ARG_OF_PERICENTER":207.481,"MEAN_ANOMALY":152.637,"EPHEMERIS_TYPE":0,"NORAD_CAT_ID":66715,"ELEMENT_SET_NO":999,"REV_AT_EPOCH":3386,"BSTAR":0.00020223571,"MEAN_MOTION_DOT":0.00004383,"MEAN_MOTION_DDOT":0},{"OBJECT_NAME":"FLOCK 4H-13","OBJECT_ID":"2025-276BC","EPOCH":"2026-07-08T17:54:50.575680","CLASSIFICATION_TYPE":"U","MEAN_MOTION":15.20860427,"ECCENTRICITY":0.00013847,"INCLINATION":97.4216,"RA_OF_ASC_NODE":263.2645,"ARG_OF_PERICENTER":149.7349,"MEAN_ANOMALY":210.3966,"EPHEMERIS_TYPE":0,"NORAD_CAT_ID":66716,"ELEMENT_SET_NO":999,"REV_AT_EPOCH":3371,"BSTAR":0.0002226327,"MEAN_MOTION_DOT":0.00004848,"MEAN_MOTION_DDOT":0},{"OBJECT_NAME":"FLOCK 4H-14","OBJECT_ID":"2025-276BD","EPOCH":"2026-07-08T15:25:55.291584","CLASSIFICATION_TYPE":"U","MEAN_MOTION":15.21309666,"ECCENTRICITY":0.00013856,"INCLINATION":97.4196,"RA_OF_ASC_NODE":263.2066,"ARG_OF_PERICENTER":145.3489,"MEAN_ANOMALY":214.7837,"EPHEMERIS_TYPE":0,"NORAD_CAT_ID":66717,"ELEMENT_SET_NO":999,"REV_AT_EPOCH":3295,"BSTAR":0.00020046552,"MEAN_MOTION_DOT":0.00004416,"MEAN_MOTION_DDOT":0}]}
